FLOCK 4G-11             
1 62629U 25009W   26068.45629261  .00012672  00000+0  47740-3 0  9990
2 62629  97.3964 150.6183 0001611 333.5407  26.5750 15.27220677 63680
STARLINK-35506          
1 66324U 25253F   26068.72406323  .00031398  00000+0  11451-2 0  9994
2 66324  43.0030 211.9772 0002642 271.1001  88.9548 15.27595327 20255
